KUIPER-00204            
1 67145U 25301N   26068.39760395  .00020516  00000+0  79568-3 0  9999
2 67145  51.8870  71.6415 0003071 354.8934   5.2016 15.26088400 13737
STARLINK-36451          
1 67339U 26003F   26067.51845920  .00030584  00000+0  11161-2 0  9995
2 67339  43.0010 233.7783 0001494 268.3388  91.7293 15.27586134  8648
